OBJECT_NAME,OBJECT_ID,EPOCH,MEAN_MOTION,ECCENTRICITY,INCLINATION,RA_OF_ASC_NODE,ARG_OF_PERICENTER,MEAN_ANOMALY,EPHEMERIS_TYPE,CLASSIFICATION_TYPE,NORAD_CAT_ID,ELEMENT_SET_NO,REV_AT_EPOCH,BSTAR,MEAN_MOTION_DOT,MEAN_MOTION_DDOT
ONEWEB-0310,2021-075X,2026-06-24T22:27:13.216032,13.12441745,.0001819,87.8942,349.1386,93.0818,267.0519,0,U,49096,999,23620,.11965E-2,.443E-5,0
ONEWEB-0311,2021-075Y,2026-06-25T01:39:28.012608,13.17650855,.0002144,87.9134,4.2944,79.2147,280.9225,0,U,49097,999,23466,.18002E-3,.83E-6,0
ONEWEB-0312,2021-075Z,2026-06-25T00:11:58.840224,13.17651137,.0002198,87.9129,4.3174,89.4351,270.7033,0,U,49098,999,23463,-.48028E-3,-.174E-5,0
ONEWEB-0313,2021-075AA,2026-06-25T02:08:26.075616,13.17649062,.0001972,87.9128,4.3067,86.6939,273.4419,0,U,49099,999,23463,.60362E-4,.36E-6,0
ONEWEB-0314,2021-075AB,2026-06-25T01:20:02.658912,13.17649786,.0002242,87.9142,4.2867,88.2841,271.8547,0,U,49100,999,23460,.2105E-3,.95E-6,0
ONEWEB-0315,2021-075AC,2026-06-24T23:37:56.982720,13.12444274,.0001959,87.8949,349.0935,81.1861,278.9489,0,U,49101,999,23619,-.6594E-3,-.225E-5,0
ONEWEB-0316,2021-075AD,2026-06-23T23:42:16.911072,13.18672787,.00017394,87.9173,334.1025,97.1420,262.9910,0,U,49102,999,23810,.64003275E-2,.2536E-4,0
ONEWEB-0317,2021-075AE,2026-06-24T23:42:49.996224,13.12445148,.0001837,87.8952,349.1169,115.4402,244.6916,0,U,49103,999,23621,.10425E-3,.5E-6,0
ONEWEB-0318,2021-075AF,2026-06-24T03:15:54.826272,13.18717288,.00004952,87.9217,334.0749,89.9230,270.1959,0,U,49104,999,23808,.7469343E-2,.296E-4,0
ONEWEB-0319,2021-075AG,2026-06-25T01:41:54.013920,13.17649813,.0002026,87.9133,4.2992,74.2764,285.8591,0,U,49105,999,23464,.19936E-3,.9E-6,0
ONEWEB-0323,2021-075AH,2026-06-25T04:45:20.300832,13.12441821,.0002175,87.8952,349.0562,79.2032,280.9341,0,U,49106,999,23560,-.14736E-2,-.517E-5,0
ONEWEB-0329,2021-075AJ,2026-06-25T00:04:42.215232,13.17655247,.0001807,87.9135,4.3132,97.4785,262.6552,0,U,49107,999,23461,-.27028E-2,-.1037E-4,0
ONEWEB-0330,2021-075AK,2026-06-25T04:00:00.999072,13.19204954,.0002171,87.9140,4.2988,93.0307,242.1197,0,U,49108,999,516,-.11107E+0,-.43901E-3,0
ONEWEB-0292,2021-083A,2026-06-24T22:27:20.581632,13.13454746,.0001811,87.8958,318.6949,93.1511,266.9826,0,U,49186,999,23194,.47034E-3,.184E-5,0
ONEWEB-0303,2021-083B,2026-06-25T04:40:46.004160,13.18686743,.0001897,87.9172,333.8628,89.6542,270.4807,0,U,49187,999,23103,.19805E-4,.21E-6,0
ONEWEB-0306,2021-083C,2026-06-25T04:26:11.313888,13.18687465,.000184,87.9177,333.8531,101.6303,258.5036,0,U,49188,999,23107,.14515E-3,.7E-6,0
ONEWEB-0307,2021-083D,2026-06-25T03:47:55.686624,13.13470480,.0001947,87.8961,318.6481,94.7649,265.3703,0,U,49189,999,23197,.84944E-3,.323E-5,0
ONEWEB-0320,2021-083E,2026-06-24T03:25:39.680832,13.18686773,.00018208,87.9166,334.0777,95.7935,264.3405,0,U,49190,999,23089,.81024389E-4,.45E-6,0
ONEWEB-0321,2021-083F,2026-06-23T17:11:13.316640,13.20772828,.00019647,87.9196,273.1337,108.4613,251.6734,0,U,49191,999,23769,.376951E-5,.15E-6,0
ONEWEB-0322,2021-083G,2026-06-25T03:41:50.739936,13.13470656,.0001513,87.8960,318.6492,108.7859,251.3434,0,U,49192,999,23196,.8415E-3,.32E-5,0
ONEWEB-0324,2021-083H,2026-06-24T22:48:42.281568,13.18685276,.0002004,87.9178,333.9053,97.1583,262.9777,0,U,49193,999,23102,.35632E-4,.27E-6,0
ONEWEB-0325,2021-083J,2026-06-25T04:21:20.856960,13.18685997,.0001783,87.9165,333.8667,93.2851,266.8485,0,U,49194,999,23106,.78886E-4,.44E-6,0
ONEWEB-0326,2021-083K,2026-06-25T04:43:24.396096,13.18685819,.0001884,87.9175,333.8622,86.3067,273.8281,0,U,49195,999,23105,.24663E-3,.11E-5,0
ONEWEB-0327,2021-083L,2026-06-25T04:43:00.231744,13.18685497,.0001767,87.9167,333.8659,81.9964,278.1369,0,U,49196,999,23107,-.49407E-4,-.7E-7,0
ONEWEB-0328,2021-083M,2026-06-24T03:41:09.782880,13.13469642,.00019449,87.8971,318.8222,99.1227,261.0122,0,U,49197,999,23181,.86432855E-3,.328E-5,0
ONEWEB-0331,2021-083N,2026-06-25T04:33:28.306080,13.18686775,.0001977,87.9177,333.8574,84.8984,275.2374,0,U,49198,999,23106,-.89172E-4,-.22E-6,0
ONEWEB-0333,2021-083P,2026-06-24T03:33:50.797440,13.13470277,.00017892,87.8959,318.8488,96.8583,263.2750,0,U,49199,999,23182,.64408961E-3,.248E-5,0
ONEWEB-0334,2021-083Q,2026-06-24T06:15:26.961408,13.20773921,.00016299,87.9194,273.0353,124.2798,235.8490,0,U,49200,999,23772,-.288335E-5,.12E-6,0
ONEWEB-0335,2021-083R,2026-06-24T03:26:31.462944,13.13473425,.00016875,87.8982,318.8474,91.3100,268.8222,0,U,49201,999,23183,.66068395E-3,.254E-5,0
ONEWEB-0336,2021-083S,2026-06-24T02:45:06.487488,13.13470049,.00019722,87.8962,318.8477,91.5222,268.6133,0,U,49202,999,23182,.47277276E-3,.185E-5,0
