ONEWEB-0310             
1 49096U 21075X   26175.93556963  .00000443  00000+0  11965-2 0  9994
2 49096  87.8942 349.1386 0001819  93.0818 267.0519 13.12441745236205
ONEWEB-0311             
1 49097U 21075Y   26176.06907422  .00000083  00000+0  18002-3 0  9990
2 49097  87.9134   4.2944 0002144  79.2147 280.9225 13.17650855234667
ONEWEB-0312             
1 49098U 21075Z   26176.00831991 -.00000174  00000+0 -48028-3 0  9996
2 49098  87.9129   4.3174 0002198  89.4351 270.7033 13.17651137234632
ONEWEB-0313             
1 49099U 21075AA  26176.08919069  .00000036  00000+0  60362-4 0  9999
2 49099  87.9128   4.3067 0001972  86.6939 273.4419 13.17649062234635
ONEWEB-0314             
1 49100U 21075AB  26176.05558633  .00000095  00000+0  21050-3 0  9990
2 49100  87.9142   4.2867 0002242  88.2841 271.8547 13.17649786234606
ONEWEB-0315             
1 49101U 21075AC  26175.98468730 -.00000225  00000+0 -65940-3 0  9993
2 49101  87.8949 349.0935 0001959  81.1861 278.9489 13.12444274236194
ONEWEB-0316             
1 49102U 21075AD  26174.98769573  .00002536  00000+0  64003-2 0  9995
2 49102  87.9173 334.1025 0001739  97.1420 262.9910 13.18672787238107
ONEWEB-0317             
1 49103U 21075AE  26175.98807866  .00000050  00000+0  10425-3 0  9994
2 49103  87.8952 349.1169 0001837 115.4402 244.6916 13.12445148236216
ONEWEB-0318             
1 49104U 21075AF  26175.13605123  .00002960  00000+0  74693-2 0  9992
2 49104  87.9217 334.0749 0000495  89.9230 270.1959 13.18717288238083
ONEWEB-0319             
1 49105U 21075AG  26176.07076405  .00000090  00000+0  19936-3 0  9994
2 49105  87.9133   4.2992 0002026  74.2764 285.8591 13.17649813234648
ONEWEB-0323             
1 49106U 21075AH  26176.19815163 -.00000517  00000+0 -14736-2 0  9998
2 49106  87.8952 349.0562 0002175  79.2032 280.9341 13.12441821235608
ONEWEB-0329             
1 49107U 21075AJ  26176.00326638 -.00001037  00000+0 -27028-2 0  9999
2 49107  87.9135   4.3132 0001807  97.4785 262.6552 13.17655247234610
ONEWEB-0330             
1 49108U 21075AK  26176.16667823 -.00043901  00000+0 -11107+0 0  9995
2 49108  87.9140   4.2988 0002171  93.0307 242.1197 13.19204954  5163
ONEWEB-0292             
1 49186U 21083A   26175.93565488  .00000184  00000+0  47034-3 0  9994
2 49186  87.8958 318.6949 0001811  93.1511 266.9826 13.13454746231942
ONEWEB-0303             
1 49187U 21083B   26176.19497690  .00000021  00000+0  19805-4 0  9999
2 49187  87.9172 333.8628 0001897  89.6542 270.4807 13.18686743231031
ONEWEB-0306             
1 49188U 21083C   26176.18485317  .00000070  00000+0  14515-3 0  9998
2 49188  87.9177 333.8531 0001840 101.6303 258.5036 13.18687465231075
ONEWEB-0307             
1 49189U 21083D   26176.15828341  .00000323  00000+0  84944-3 0  9998
2 49189  87.8961 318.6481 0001947  94.7649 265.3703 13.13470480231972
ONEWEB-0320             
1 49190U 21083E   26175.14282038  .00000045  00000+0  81024-4 0  9993
2 49190  87.9166 334.0777 0001820  95.7935 264.3405 13.18686773230898
ONEWEB-0321             
1 49191U 21083F   26174.71612635  .00000015  00000+0  37695-5 0  9999
2 49191  87.9196 273.1337 0001964 108.4613 251.6734 13.20772828237690
ONEWEB-0322             
1 49192U 21083G   26176.15405949  .00000320  00000+0  84150-3 0  9993
2 49192  87.8960 318.6492 0001513 108.7859 251.3434 13.13470656231965
ONEWEB-0324             
1 49193U 21083H   26175.95048937  .00000027  00000+0  35632-4 0  9997
2 49193  87.9178 333.9053 0002004  97.1583 262.9777 13.18685276231028
ONEWEB-0325             
1 49194U 21083J   26176.18149140  .00000044  00000+0  78886-4 0  9999
2 49194  87.9165 333.8667 0001783  93.2851 266.8485 13.18685997231066
ONEWEB-0326             
1 49195U 21083K   26176.19681014  .00000110  00000+0  24663-3 0  9999
2 49195  87.9175 333.8622 0001884  86.3067 273.8281 13.18685819231057
ONEWEB-0327             
1 49196U 21083L   26176.19653046 -.00000007  00000+0 -49407-4 0  9995
2 49196  87.9167 333.8659 0001767  81.9964 278.1369 13.18685497231075
ONEWEB-0328             
1 49197U 21083M   26175.15358545  .00000328  00000+0  86433-3 0  9990
2 49197  87.8971 318.8222 0001944  99.1227 261.0122 13.13469642231814
ONEWEB-0331             
1 49198U 21083N   26176.18991095 -.00000022  00000+0 -89172-4 0  9995
2 49198  87.9177 333.8574 0001977  84.8984 275.2374 13.18686775231064
ONEWEB-0333             
1 49199U 21083P   26175.14850460  .00000248  00000+0  64409-3 0  9994
2 49199  87.8959 318.8488 0001789  96.8583 263.2750 13.13470277231820
ONEWEB-0334             
1 49200U 21083Q   26175.26072872  .00000012  00000+0 -28834-5 0  9997
2 49200  87.9194 273.0353 0001629 124.2798 235.8490 13.20773921237726
ONEWEB-0335             
1 49201U 21083R   26175.14341971  .00000254  00000+0  66068-3 0  9990
2 49201  87.8982 318.8474 0001687  91.3100 268.8222 13.13473425231831
ONEWEB-0336             
1 49202U 21083S   26175.11465842  .00000185  00000+0  47277-3 0  9996
2 49202  87.8962 318.8477 0001972  91.5222 268.6133 13.13470049231824
